{"fetched_at":"2026-07-12T05:52:33.815Z","source":"https://celestrak.org/NORAD/elements/gp.php?GROUP=oneweb&FORMAT=JSON","constellation":"oneweb","records":[{"OBJECT_NAME":"ONEWEB-0056","OBJECT_ID":"2020-008AE","EPOCH":"2026-07-11T15:23:03.950016","CLASSIFICATION_TYPE":"U","MEAN_MOTION":13.10369046,"ECCENTRICITY":0.0001685,"INCLINATION":87.8814,"RA_OF_ASC_NODE":31.3876,"ARG_OF_PERICENTER":71.3766,"MEAN_ANOMALY":288.7544,"EPHEMERIS_TYPE":0,"NORAD_CAT_ID":45159,"ELEMENT_SET_NO":999,"REV_AT_EPOCH":31138,"BSTAR":-0.0003638,"MEAN_MOTION_DOT":-0.00000114,"MEAN_MOTION_DDOT":0},{"OBJECT_NAME":"ONEWEB-0057","OBJECT_ID":"2020-008AF","EPOCH":"2026-07-11T13:57:56.208384","CLASSIFICATION_TYPE":"U","MEAN_MOTION":13.10372527,"ECCENTRICITY":0.0001632,"INCLINATION":87.8821,"RA_OF_ASC_NODE":31.4124,"ARG_OF_PERICENTER":70.1536,"MEAN_ANOMALY":289.9768,"EPHEMERIS_TYPE":0,"NORAD_CAT_ID":45160,"ELEMENT_SET_NO":999,"REV_AT_EPOCH":31154,"BSTAR":-0.001787,"MEAN_MOTION_DOT":-0.00000611,"MEAN_MOTION_DDOT":0},{"OBJECT_NAME":"ONEWEB-0058","OBJECT_ID":"2020-008AG","EPOCH":"2026-07-11T13:38:55.584096","CLASSIFICATION_TYPE":"U","MEAN_MOTION":13.10346906,"ECCENTRICITY":0.0002104,"INCLINATION":87.8794,"RA_OF_ASC_NODE":31.4158,"ARG_OF_PERICENTER":97.0157,"MEAN_ANOMALY":263.1209,"EPHEMERIS_TYPE":0,"NORAD_CAT_ID":45161,"ELEMENT_SET_NO":999,"REV_AT_EPOCH":31161,"BSTAR":0.012985,"MEAN_MOTION_DOT":0.00004546,"MEAN_MOTION_DDOT":0},{"OBJECT_NAME":"ONEWEB-0059","OBJECT_ID":"2020-008AH","EPOCH":"2026-07-11T13:33:32.671872","CLASSIFICATION_TYPE":"U","MEAN_MOTION":13.10367595,"ECCENTRICITY":0.0001549,"INCLINATION":87.8813,"RA_OF_ASC_NODE":31.4193,"ARG_OF_PERICENTER":85.6832,"MEAN_ANOMALY":274.4472,"EPHEMERIS_TYPE":0,"NORAD_CAT_ID":45162,"ELEMENT_SET_NO":999,"REV_AT_EPOCH":31151,"BSTAR":-0.00033481,"MEAN_MOTION_DOT":-0.00000104,"MEAN_MOTION_DDOT":0},{"OBJECT_NAME":"ONEWEB-0062","OBJECT_ID":"2020-008AJ","EPOCH":"2026-07-11T14:07:19.238304","CLASSIFICATION_TYPE":"U","MEAN_MOTION":13.10374645,"ECCENTRICITY":0.0001975,"INCLINATION":87.8826,"RA_OF_ASC_NODE":31.4044,"ARG_OF_PERICENTER":94.3804,"MEAN_ANOMALY":265.7549,"EPHEMERIS_TYPE":0,"NORAD_CAT_ID":45163,"ELEMENT_SET_NO":999,"REV_AT_EPOCH":31138,"BSTAR":-0.001841,"MEAN_MOTION_DOT":-0.0000063,"MEAN_MOTION_DDOT":0},{"OBJECT_NAME":"ONEWEB-0065","OBJECT_ID":"2020-008AK","EPOCH":"2026-07-11T13:06:15.675264","CLASSIFICATION_TYPE":"U","MEAN_MOTION":13.10374552,"ECCENTRICITY":0.00018559,"INCLINATION":87.8811,"RA_OF_ASC_NODE":31.4182,"ARG_OF_PERICENTER":78.5908,"MEAN_ANOMALY":281.5428,"EPHEMERIS_TYPE":0,"NORAD_CAT_ID":45164,"ELEMENT_SET_NO":999,"REV_AT_EPOCH":31107,"BSTAR":0.0019798549,"MEAN_MOTION_DOT":0.00000704,"MEAN_MOTION_DDOT":0},{"OBJECT_NAME":"ONEWEB-0066","OBJECT_ID":"2020-020A","EPOCH":"2026-07-11T20:48:15.363072","CLASSIFICATION_TYPE":"U","MEAN_MOTION":13.11422747,"ECCENTRICITY":0.0001638,"INCLINATION":87.8879,"RA_OF_ASC_NODE":16.1557,"ARG_OF_PERICENTER":91.6855,"MEAN_ANOMALY":268.4461,"EPHEMERIS_TYPE":0,"NORAD_CAT_ID":45424,"ELEMENT_SET_NO":999,"REV_AT_EPOCH":30591,"BSTAR":0.00036169,"MEAN_MOTION_DOT":0.00000141,"MEAN_MOTION_DDOT":0},{"OBJECT_NAME":"ONEWEB-0067","OBJECT_ID":"2020-020B","EPOCH":"2026-07-11T14:23:07.719360","CLASSIFICATION_TYPE":"U","MEAN_MOTION":13.11423295,"ECCENTRICITY":0.0001761,"INCLINATION":87.8902,"RA_OF_ASC_NODE":16.136,"ARG_OF_PERICENTER":84.5699,"MEAN_ANOMALY":275.563,"EPHEMERIS_TYPE":0,"NORAD_CAT_ID":45425,"ELEMENT_SET_NO":999,"REV_AT_EPOCH":30593,"BSTAR":-0.00049468,"MEAN_MOTION_DOT":-0.00000163,"MEAN_MOTION_DDOT":0},{"OBJECT_NAME":"ONEWEB-0080","OBJECT_ID":"2020-020C","EPOCH":"2026-07-11T14:22:42.907008","CLASSIFICATION_TYPE":"U","MEAN_MOTION":13.11414512,"ECCENTRICITY":0.0002024,"INCLINATION":87.8893,"RA_OF_ASC_NODE":16.2087,"ARG_OF_PERICENTER":97.6534,"MEAN_ANOMALY":262.4824,"EPHEMERIS_TYPE":0,"NORAD_CAT_ID":45426,"ELEMENT_SET_NO":999,"REV_AT_EPOCH":30590,"BSTAR":-0.00029267,"MEAN_MOTION_DOT":-9.1e-7,"MEAN_MOTION_DDOT":0},{"OBJECT_NAME":"ONEWEB-0090","OBJECT_ID":"2020-020D","EPOCH":"2026-07-11T13:14:20.616000","CLASSIFICATION_TYPE":"U","MEAN_MOTION":13.1141858,"ECCENTRICITY":0.0001878,"INCLINATION":87.8898,"RA_OF_ASC_NODE":16.2225,"ARG_OF_PERICENTER":91.4136,"MEAN_ANOMALY":268.7207,"EPHEMERIS_TYPE":0,"NORAD_CAT_ID":45427,"ELEMENT_SET_NO":999,"REV_AT_EPOCH":30586,"BSTAR":-0.00072526,"MEAN_MOTION_DOT":-0.00000244,"MEAN_MOTION_DDOT":0},{"OBJECT_NAME":"ONEWEB-0061","OBJECT_ID":"2020-020E","EPOCH":"2026-07-11T14:00:20.668320","CLASSIFICATION_TYPE":"U","MEAN_MOTION":13.11415885,"ECCENTRICITY":0.000182,"INCLINATION":87.8883,"RA_OF_ASC_NODE":16.2002,"ARG_OF_PERICENTER":89.3795,"MEAN_ANOMALY":270.7542,"EPHEMERIS_TYPE":0,"NORAD_CAT_ID":45428,"ELEMENT_SET_NO":999,"REV_AT_EPOCH":30582,"BSTAR":0.0015919,"MEAN_MOTION_DOT":0.00000577,"MEAN_MOTION_DDOT":0},{"OBJECT_NAME":"ONEWEB-0081","OBJECT_ID":"2020-020F","EPOCH":"2026-07-11T13:33:41.214240","CLASSIFICATION_TYPE":"U","MEAN_MOTION":13.11417932,"ECCENTRICITY":0.0001632,"INCLINATION":87.8885,"RA_OF_ASC_NODE":16.2128,"ARG_OF_PERICENTER":87.4103,"MEAN_ANOMALY":272.7212,"EPHEMERIS_TYPE":0,"NORAD_CAT_ID":45429,"ELEMENT_SET_NO":999,"REV_AT_EPOCH":30593,"BSTAR":0.00085356,"MEAN_MOTION_DOT":0.00000315,"MEAN_MOTION_DDOT":0},{"OBJECT_NAME":"ONEWEB-0069","OBJECT_ID":"2020-020G","EPOCH":"2026-07-11T13:36:19.866240","CLASSIFICATION_TYPE":"U","MEAN_MOTION":13.11420449,"ECCENTRICITY":0.0001629,"INCLINATION":87.8887,"RA_OF_ASC_NODE":16.2157,"ARG_OF_PERICENTER":90.831,"MEAN_ANOMALY":269.3004,"EPHEMERIS_TYPE":0,"NORAD_CAT_ID":45430,"ELEMENT_SET_NO":999,"REV_AT_EPOCH":30586,"BSTAR":0.0010984,"MEAN_MOTION_DOT":0.00000402,"MEAN_MOTION_DDOT":0},{"OBJECT_NAME":"ONEWEB-0031","OBJECT_ID":"2020-020H","EPOCH":"2026-07-11T12:37:32.780640","CLASSIFICATION_TYPE":"U","MEAN_MOTION":13.11415963,"ECCENTRICITY":0.00019162,"INCLINATION":87.8875,"RA_OF_ASC_NODE":16.2266,"ARG_OF_PERICENTER":95.108,"MEAN_ANOMALY":265.0267,"EPHEMERIS_TYPE":0,"NORAD_CAT_ID":45431,"ELEMENT_SET_NO":999,"REV_AT_EPOCH":30584,"BSTAR":-0.00056395284,"MEAN_MOTION_DOT":-0.00000187,"MEAN_MOTION_DDOT":0},{"OBJECT_NAME":"ONEWEB-0027","OBJECT_ID":"2020-020J","EPOCH":"2026-07-11T20:44:40.039584","CLASSIFICATION_TYPE":"U","MEAN_MOTION":13.17641272,"ECCENTRICITY":0.0002448,"INCLINATION":87.9139,"RA_OF_ASC_NODE":0.9541,"ARG_OF_PERICENTER":92.7189,"MEAN_ANOMALY":267.4223,"EPHEMERIS_TYPE":0,"NORAD_CAT_ID":45432,"ELEMENT_SET_NO":999,"REV_AT_EPOCH":30960,"BSTAR":-0.00074959,"MEAN_MOTION_DOT":-0.00000278,"MEAN_MOTION_DDOT":0},{"OBJECT_NAME":"ONEWEB-0064","OBJECT_ID":"2020-020K","EPOCH":"2026-07-11T12:35:04.556256","CLASSIFICATION_TYPE":"U","MEAN_MOTION":13.11414257,"ECCENTRICITY":0.00020302,"INCLINATION":87.8871,"RA_OF_ASC_NODE":16.2193,"ARG_OF_PERICENTER":93.2027,"MEAN_ANOMALY":266.9333,"EPHEMERIS_TYPE":0,"NORAD_CAT_ID":45433,"ELEMENT_SET_NO":999,"REV_AT_EPOCH":30587,"BSTAR":-0.00094980248,"MEAN_MOTION_DOT":-0.00000324,"MEAN_MOTION_DDOT":0}]}
