[
  {
    "name": "ONEWEB-0056",
    "noradId": "45159",
    "line1": "1 45159U 20008AE  26192.64101794 -.00000114  00000+0 -36380-3 0  9996",
    "line2": "2 45159  87.8814  31.3876 0001685  71.3766 288.7544 13.10369046311387"
  },
  {
    "name": "ONEWEB-0057",
    "noradId": "45160",
    "line1": "1 45160U 20008AF  26192.58190056 -.00000611  00000+0 -17870-2 0  9994",
    "line2": "2 45160  87.8821  31.4124 0001632  70.1536 289.9768 13.10372527311545"
  },
  {
    "name": "ONEWEB-0058",
    "noradId": "45161",
    "line1": "1 45161U 20008AG  26192.56869889  .00004546  00000+0  12985-1 0  9990",
    "line2": "2 45161  87.8794  31.4158 0002104  97.0157 263.1209 13.10346906311618"
  },
  {
    "name": "ONEWEB-0059",
    "noradId": "45162",
    "line1": "1 45162U 20008AH  26192.56496148 -.00000104  00000+0 -33481-3 0  9999",
    "line2": "2 45162  87.8813  31.4193 0001549  85.6832 274.4472 13.10367595311518"
  },
  {
    "name": "ONEWEB-0062",
    "noradId": "45163",
    "line1": "1 45163U 20008AJ  26192.58841711 -.00000630  00000+0 -18410-2 0  9990",
    "line2": "2 45163  87.8826  31.4044 0001975  94.3804 265.7549 13.10374645311384"
  },
  {
    "name": "ONEWEB-0065",
    "noradId": "45164",
    "line1": "1 45164U 20008AK  26192.54601476  .00000704  00000+0  19799-2 0  9990",
    "line2": "2 45164  87.8811  31.4182 0001855  78.5908 281.5428 13.10374552311073"
  },
  {
    "name": "ONEWEB-0066",
    "noradId": "45424",
    "line1": "1 45424U 20020A   26192.86684448  .00000141  00000+0  36169-3 0  9994",
    "line2": "2 45424  87.8879  16.1557 0001638  91.6855 268.4461 13.11422747305916"
  },
  {
    "name": "ONEWEB-0067",
    "noradId": "45425",
    "line1": "1 45425U 20020B   26192.59939490 -.00000163  00000+0 -49468-3 0  9997",
    "line2": "2 45425  87.8902  16.1360 0001761  84.5699 275.5630 13.11423295305938"
  },
  {
    "name": "ONEWEB-0080",
    "noradId": "45426",
    "line1": "1 45426U 20020C   26192.59910772 -.00000091  00000+0 -29267-3 0  9995",
    "line2": "2 45426  87.8893  16.2087 0002024  97.6534 262.4824 13.11414512305900"
  },
  {
    "name": "ONEWEB-0090",
    "noradId": "45427",
    "line1": "1 45427U 20020D   26192.55162750 -.00000244  00000+0 -72526-3 0  9993",
    "line2": "2 45427  87.8898  16.2225 0001878  91.4136 268.7207 13.11418580305864"
  },
  {
    "name": "ONEWEB-0061",
    "noradId": "45428",
    "line1": "1 45428U 20020E   26192.58357255  .00000577  00000+0  15919-2 0  9992",
    "line2": "2 45428  87.8883  16.2002 0001820  89.3795 270.7542 13.11415885305822"
  },
  {
    "name": "ONEWEB-0081",
    "noradId": "45429",
    "line1": "1 45429U 20020F   26192.56506035  .00000315  00000+0  85356-3 0  9996",
    "line2": "2 45429  87.8885  16.2128 0001632  87.4103 272.7212 13.11417932305930"
  },
  {
    "name": "ONEWEB-0069",
    "noradId": "45430",
    "line1": "1 45430U 20020G   26192.56689660  .00000402  00000+0  10984-2 0  9995",
    "line2": "2 45430  87.8887  16.2157 0001629  90.8310 269.3004 13.11420449305860"
  },
  {
    "name": "ONEWEB-0031",
    "noradId": "45431",
    "line1": "1 45431U 20020H   26192.52607385 -.00000187  00000+0 -56395-3 0  9995",
    "line2": "2 45431  87.8875  16.2266 0001916  95.1080 265.0267 13.11415963305847"
  },
  {
    "name": "ONEWEB-0027",
    "noradId": "45432",
    "line1": "1 45432U 20020J   26192.86435231 -.00000278  00000+0 -74959-3 0  9999",
    "line2": "2 45432  87.9139   0.9541 0002448  92.7189 267.4223 13.17641272309608"
  },
  {
    "name": "ONEWEB-0064",
    "noradId": "45433",
    "line1": "1 45433U 20020K   26192.52435829 -.00000324  00000+0 -94980-3 0  9994",
    "line2": "2 45433  87.8871  16.2193 0002030  93.2027 266.9333 13.11414257305874"
  }
]